[{"OBJECT_NAME":"STARLINK-11294 [DTC]","OBJECT_ID":"2024-164E","EPOCH":"2025-07-31T13:52:40.952064","MEAN_MOTION":15.69711428,"ECCENTRICITY":0.0001061,"INCLINATION":53.1587,"RA_OF_ASC_NODE":321.0627,"ARG_OF_PERICENTER":83.9571,"MEAN_ANOMALY":276.1568,"EPHEMERIS_TYPE":0,"CLASSIFICATION_TYPE":"U","NORAD_CAT_ID":61054,"ELEMENT_SET_NO":999,"REV_AT_EPOCH":5069,"BSTAR":1.2354e-5,"MEAN_MOTION_DOT":9.08e-6,"MEAN_MOTION_DDOT":0},{"OBJECT_NAME":"STARLINK-11268 [DTC]","OBJECT_ID":"2024-164F","EPOCH":"2025-07-31T13:45:37.348416","MEAN_MOTION":15.69692588,"ECCENTRICITY":0.0001021,"INCLINATION":53.1585,"RA_OF_ASC_NODE":321.0307,"ARG_OF_PERICENTER":86.9923,"MEAN_ANOMALY":273.1211,"EPHEMERIS_TYPE":0,"CLASSIFICATION_TYPE":"U","NORAD_CAT_ID":61055,"ELEMENT_SET_NO":999,"REV_AT_EPOCH":5172,"BSTAR":4.0806e-5,"MEAN_MOTION_DOT":4.354e-5,"MEAN_MOTION_DDOT":0},{"OBJECT_NAME":"STARLINK-11156 [DTC]","OBJECT_ID":"2024-164G","EPOCH":"2025-07-31T13:38:33.249696","MEAN_MOTION":15.69715651,"ECCENTRICITY":6.74e-5,"INCLINATION":53.158,"RA_OF_ASC_NODE":320.9979,"ARG_OF_PERICENTER":66.2414,"MEAN_ANOMALY":293.8675,"EPHEMERIS_TYPE":0,"CLASSIFICATION_TYPE":"U","NORAD_CAT_ID":61056,"ELEMENT_SET_NO":999,"REV_AT_EPOCH":5069,"BSTAR":-1.121e-5,"MEAN_MOTION_DOT":-1.946e-5,"MEAN_MOTION_DDOT":0},{"OBJECT_NAME":"STARLINK-11231 [DTC]","OBJECT_ID":"2024-164H","EPOCH":"2025-07-31T11:59:57.466752","MEAN_MOTION":15.6970912,"ECCENTRICITY":9.08e-5,"INCLINATION":53.1583,"RA_OF_ASC_NODE":322.0122,"ARG_OF_PERICENTER":78.2609,"MEAN_ANOMALY":281.8511,"EPHEMERIS_TYPE":0,"CLASSIFICATION_TYPE":"U","NORAD_CAT_ID":61057,"ELEMENT_SET_NO":999,"REV_AT_EPOCH":5067,"BSTAR":-4.4647e-6,"MEAN_MOTION_DOT":-1.129e-5,"MEAN_MOTION_DDOT":0},{"OBJECT_NAME":"STARLINK-11299 [DTC]","OBJECT_ID":"2024-164J","EPOCH":"2025-07-31T13:24:34.253856","MEAN_MOTION":15.69712765,"ECCENTRICITY":8.5e-5,"INCLINATION":53.1581,"RA_OF_ASC_NODE":321.6658,"ARG_OF_PERICENTER":76.1126,"MEAN_ANOMALY":283.9986,"EPHEMERIS_TYPE":0,"CLASSIFICATION_TYPE":"U","NORAD_CAT_ID":61058,"ELEMENT_SET_NO":999,"REV_AT_EPOCH":5068,"BSTAR":7.1949e-6,"MEAN_MOTION_DOT":2.84e-6,"MEAN_MOTION_DDOT":0},{"OBJECT_NAME":"STARLINK-11154 [DTC]","OBJECT_ID":"2024-164K","EPOCH":"2025-07-31T13:17:30.719328","MEAN_MOTION":15.69707378,"ECCENTRICITY":0.0001059,"INCLINATION":53.1588,"RA_OF_ASC_NODE":321.6329,"ARG_OF_PERICENTER":98.5905,"MEAN_ANOMALY":261.5233,"EPHEMERIS_TYPE":0,"CLASSIFICATION_TYPE":"U","NORAD_CAT_ID":61059,"ELEMENT_SET_NO":999,"REV_AT_EPOCH":5068,"BSTAR":1.6627e-7,"MEAN_MOTION_DOT":-5.68e-6,"MEAN_MOTION_DDOT":0},{"OBJECT_NAME":"STARLINK-11297 [DTC]","OBJECT_ID":"2024-164L","EPOCH":"2025-07-31T13:10:27.042240","MEAN_MOTION":15.6970836,"ECCENTRICITY":0.0001417,"INCLINATION":53.1581,"RA_OF_ASC_NODE":321.6002,"ARG_OF_PERICENTER":53.1695,"MEAN_ANOMALY":306.9452,"EPHEMERIS_TYPE":0,"CLASSIFICATION_TYPE":"U","NORAD_CAT_ID":61060,"ELEMENT_SET_NO":999,"REV_AT_EPOCH":5068,"BSTAR":-1.3224e-6,"MEAN_MOTION_DOT":-7.49e-6,"MEAN_MOTION_DDOT":0},{"OBJECT_NAME":"STARLINK-11233 [DTC]","OBJECT_ID":"2024-164M","EPOCH":"2025-07-31T14:35:04.256160","MEAN_MOTION":15.69708304,"ECCENTRICITY":0.0001136,"INCLINATION":53.1579,"RA_OF_ASC_NODE":321.2541,"ARG_OF_PERICENTER":47.1459,"MEAN_ANOMALY":312.9654,"EPHEMERIS_TYPE":0,"CLASSIFICATION_TYPE":"U","NORAD_CAT_ID":61061,"ELEMENT_SET_NO":999,"REV_AT_EPOCH":5172,"BSTAR":-9.4383e-6,"MEAN_MOTION_DOT":-1.732e-5,"MEAN_MOTION_DDOT":0},{"OBJECT_NAME":"STARLINK-11236 [DTC]","OBJECT_ID":"2024-164N","EPOCH":"2025-07-31T14:27:59.749632","MEAN_MOTION":15.69717983,"ECCENTRICITY":3.36e-5,"INCLINATION":53.1586,"RA_OF_ASC_NODE":321.2196,"ARG_OF_PERICENTER":69.8518,"MEAN_ANOMALY":290.2536,"EPHEMERIS_TYPE":0,"CLASSIFICATION_TYPE":"U","NORAD_CAT_ID":61062,"ELEMENT_SET_NO":999,"REV_AT_EPOCH":5069,"BSTAR":-1.9094e-6,"MEAN_MOTION_DOT":-8.19e-6,"MEAN_MOTION_DDOT":0},{"OBJECT_NAME":"STARLINK-32350","OBJECT_ID":"2024-164P","EPOCH":"2025-07-31T05:53:13.958880","MEAN_MOTION":15.30188353,"ECCENTRICITY":0.0001195,"INCLINATION":53.1618,"RA_OF_ASC_NODE":39.6915,"ARG_OF_PERICENTER":91.8544,"MEAN_ANOMALY":268.2594,"EPHEMERIS_TYPE":0,"CLASSIFICATION_TYPE":"U","NORAD_CAT_ID":61063,"ELEMENT_SET_NO":999,"REV_AT_EPOCH":4957,"BSTAR":-1.79e-5,"MEAN_MOTION_DOT":-8.89e-6,"MEAN_MOTION_DDOT":0},{"OBJECT_NAME":"STARLINK-32378","OBJECT_ID":"2024-164Q","EPOCH":"2025-07-31T20:04:16.541184","MEAN_MOTION":15.30183084,"ECCENTRICITY":0.0001264,"INCLINATION":53.1617,"RA_OF_ASC_NODE":36.9804,"ARG_OF_PERICENTER":85.4085,"MEAN_ANOMALY":274.706,"EPHEMERIS_TYPE":0,"CLASSIFICATION_TYPE":"U","NORAD_CAT_ID":61064,"ELEMENT_SET_NO":999,"REV_AT_EPOCH":5064,"BSTAR":-6.2738e-6,"MEAN_MOTION_DOT":-5.45e-6,"MEAN_MOTION_DDOT":0},{"OBJECT_NAME":"STARLINK-32321","OBJECT_ID":"2024-164R","EPOCH":"2025-07-31T18:43:53.694048","MEAN_MOTION":15.30185954,"ECCENTRICITY":0.0001308,"INCLINATION":53.162,"RA_OF_ASC_NODE":37.3441,"ARG_OF_PERICENTER":92.9524,"MEAN_ANOMALY":267.1626,"EPHEMERIS_TYPE":0,"CLASSIFICATION_TYPE":"U","NORAD_CAT_ID":61065,"ELEMENT_SET_NO":999,"REV_AT_EPOCH":5068,"BSTAR":2.5928e-5,"MEAN_MOTION_DOT":4.08e-6,"MEAN_MOTION_DDOT":0},{"OBJECT_NAME":"STARLINK-32381","OBJECT_ID":"2024-164S","EPOCH":"2025-07-31T18:59:05.276256","MEAN_MOTION":15.30192925,"ECCENTRICITY":0.0001058,"INCLINATION":53.1609,"RA_OF_ASC_NODE":37.4051,"ARG_OF_PERICENTER":76.6409,"MEAN_ANOMALY":283.471,"EPHEMERIS_TYPE":0,"CLASSIFICATION_TYPE":"U","NORAD_CAT_ID":61066,"ELEMENT_SET_NO":999,"REV_AT_EPOCH":5064,"BSTAR":1.937e-5,"MEAN_MOTION_DOT":2.15e-6,"MEAN_MOTION_DDOT":0},{"OBJECT_NAME":"STARLINK-32385","OBJECT_ID":"2024-164U","EPOCH":"2025-07-31T06:06:54.681120","MEAN_MOTION":15.3018998,"ECCENTRICITY":0.0001337,"INCLINATION":53.1614,"RA_OF_ASC_NODE":39.7494,"ARG_OF_PERICENTER":85.9795,"MEAN_ANOMALY":274.1359,"EPHEMERIS_TYPE":0,"CLASSIFICATION_TYPE":"U","NORAD_CAT_ID":61068,"ELEMENT_SET_NO":999,"REV_AT_EPOCH":4957,"BSTAR":1.7848e-6,"MEAN_MOTION_DOT":-3.06e-6,"MEAN_MOTION_DDOT":0},{"OBJECT_NAME":"STARLINK-32380","OBJECT_ID":"2024-164V","EPOCH":"2025-07-31T18:34:46.733664","MEAN_MOTION":15.30184187,"ECCENTRICITY":0.0001465,"INCLINATION":53.1624,"RA_OF_ASC_NODE":37.3021,"ARG_OF_PERICENTER":94.4733,"MEAN_ANOMALY":265.6435,"EPHEMERIS_TYPE":0,"CLASSIFICATION_TYPE":"U","NORAD_CAT_ID":61069,"ELEMENT_SET_NO":999,"REV_AT_EPOCH":5064,"BSTAR":1.4744e-5,"MEAN_MOTION_DOT":7.7e-7,"MEAN_MOTION_DDOT":0},{"OBJECT_NAME":"STARLINK-32375","OBJECT_ID":"2024-164W","EPOCH":"2025-07-31T18:48:27.011808","MEAN_MOTION":15.30188546,"ECCENTRICITY":0.0001137,"INCLINATION":53.1604,"RA_OF_ASC_NODE":37.3574,"ARG_OF_PERICENTER":76.3662,"MEAN_ANOMALY":283.7466,"EPHEMERIS_TYPE":0,"CLASSIFICATION_TYPE":"U","NORAD_CAT_ID":61070,"ELEMENT_SET_NO":999,"REV_AT_EPOCH":5068,"BSTAR":2.922e-5,"MEAN_MOTION_DOT":5.06e-6,"MEAN_MOTION_DDOT":0}]
