STARLINK-11294 [DTC]    
1 61054U 24164E   25212.57825176  .00000908  00000+0  12354-4 0  9991
2 61054  53.1587 321.0627 0001061  83.9571 276.1568 15.69711428 50698
STARLINK-11268 [DTC]    
1 61055U 24164F   25212.57334894  .00004354  00000+0  40806-4 0  9996
2 61055  53.1585 321.0307 0001021  86.9923 273.1211 15.69692588 51724
STARLINK-11156 [DTC]    
1 61056U 24164G   25212.56844039 -.00001946  00000+0 -11210-4 0  9996
2 61056  53.1580 320.9979 0000674  66.2414 293.8675 15.69715651 50697
STARLINK-11231 [DTC]    
1 61057U 24164H   25212.49997068 -.00001129  00000+0 -44647-5 0  9994
2 61057  53.1583 322.0122 0000908  78.2609 281.8511 15.69709120 50671
STARLINK-11299 [DTC]    
1 61058U 24164J   25212.55872979  .00000284  00000+0  71949-5 0  9999
2 61058  53.1581 321.6658 0000850  76.1126 283.9986 15.69712765 50685
STARLINK-11154 [DTC]    
1 61059U 24164K   25212.55382777 -.00000568  00000+0  16627-6 0  9991
2 61059  53.1588 321.6329 0001059  98.5905 261.5233 15.69707378 50684
STARLINK-11297 [DTC]    
1 61060U 24164L   25212.54892410 -.00000749  00000+0 -13224-5 0  9993
2 61060  53.1581 321.6002 0001417  53.1695 306.9452 15.69708360 50687
STARLINK-11233 [DTC]    
1 61061U 24164M   25212.60768815 -.00001732  00000+0 -94383-5 0  9990
2 61061  53.1579 321.2541 0001136  47.1459 312.9654 15.69708304 51723
STARLINK-11236 [DTC]    
1 61062U 24164N   25212.60277488 -.00000819  00000+0 -19094-5 0  9993
2 61062  53.1586 321.2196 0000336  69.8518 290.2536 15.69717983 50691
STARLINK-32350          
1 61063U 24164P   25212.24530045 -.00000889  00000+0 -17900-4 0  9995
2 61063  53.1618  39.6915 0001195  91.8544 268.2594 15.30188353 49570
STARLINK-32378          
1 61064U 24164Q   25212.83630256 -.00000545  00000+0 -62738-5 0  9995
2 61064  53.1617  36.9804 0001264  85.4085 274.7060 15.30183084 50649
STARLINK-32321          
1 61065U 24164R   25212.78048257  .00000408  00000+0  25928-4 0  9999
2 61065  53.1620  37.3441 0001308  92.9524 267.1626 15.30185954 50682
STARLINK-32381          
1 61066U 24164S   25212.79103329  .00000215  00000+0  19370-4 0  9993
2 61066  53.1609  37.4051 0001058  76.6409 283.4710 15.30192925 50648
STARLINK-32385          
1 61068U 24164U   25212.25479955 -.00000306  00000+0  17848-5 0  9998
2 61068  53.1614  39.7494 0001337  85.9795 274.1359 15.30189980 49576
STARLINK-32380          
1 61069U 24164V   25212.77415201  .00000077  00000+0  14744-4 0  9995
2 61069  53.1624  37.3021 0001465  94.4733 265.6435 15.30184187 50641
STARLINK-32375          
1 61070U 24164W   25212.78364597  .00000506  00000+0  29220-4 0  9991
2 61070  53.1604  37.3574 0001137  76.3662 283.7466 15.30188546 50682
